studentId,name,email,dob,currentSemester,department,phone,batchId,parentName,parentEmail,parentPhone,address
E1401,Adweta Dash,e1401@university.edu,2003-08-14,8,DS,398379956,DS2020B,Aarna Iyer,henry48@example.com,767633805,"11/49, Gara Street, Dewas 579568"
E1977,Henry Parmar,e1977@university.edu,2002-02-18,8,DS,2743125866,DS2021C,Charles Sanghvi,rachitabasu@example.net,3096925976,"246, Raval, Tumkur-820463"
E0810,Faris Dhar,e0810@university.edu,2000-08-30,8,DS,4539033508,DS2020C,Sachi Jani,imaranmallick@example.com,237665526,"40/62, Rai, Sagar 749737"
E4828,Ishwar Koshy,e4828@university.edu,2001-12-27,7,DS,764274338,DS2022B,Pranit Wable,ladlisubramanian@example.com,5537140103,"64/242, Yohannan Ganj, Tiruppur 776089"
E4049,Nimrat Goda,e4049@university.edu,2001-06-17,5,DS,1007714491,DS2023A,Wridesh Roy,udantsabharwal@example.com,124330013,"06/418, Doshi Street, Imphal-334905"
E1066,Samar Dyal,e1066@university.edu,2007-05-07,4,DS,8606755530,DS2024C,Gabriel Patla,jayaramantamanna@example.org,916147872,"08, Tiwari Chowk, Mathura 168601"
E1759,Jhalak Sheth,e1759@university.edu,2000-01-25,8,DS,300906542,DS2021C,Oscar Din,siddharth56@example.com,788164220,"H.No. 551, Sunder Zila, Berhampur-744599"
E1923,Amaira Srinivas,e1923@university.edu,2000-03-08,6,DS,915699795,DS2023C,Bhavna Khosla,imaranbhasin@example.org,918012726,"916, Barad Nagar, Panchkula 729198"
E0565,Dalbir Nadkarni,e0565@university.edu,2004-05-13,8,DS,6510192186,DS2022C,Vritti Padmanabhan,deepjanaki@example.net,2424887919,"77/320, Ganguly Road, Saharanpur 623570"
E1650,Isaiah Sathe,e1650@university.edu,2006-06-09,8,DS,6131433610,DS2020B,Sai Sekhon,samarsachar@example.com,913562776,"73/82, Loke Road, Shahjahanpur-098769"
E1230,Barkha Chakrabarti,e1230@university.edu,2007-05-07,8,DS,8578118417,DS2020B,Bachittar Rege,abdulsura@example.net,912401894,"70/75, Mammen Circle, Panchkula 246433"
E0887,Maya Agate,e0887@university.edu,2003-08-06,6,DS,4661993107,DS2023A,Kabir Vora,kumarsanaya@example.com,392340179,"64/755, Parikh Path, Muzaffarnagar-167359"
E4091,Tanish Subramaniam,e4091@university.edu,2001-03-14,8,DS,3980491966,DS2021C,Falak Rajagopalan,yashodachaudhary@example.org,918051597,"84/471, Mane, Alappuzha-460648"
E4746,Yachana Wadhwa,e4746@university.edu,2006-01-29,3,DS,225071673,DS2024A,Edhitha Basu,krishprashad@example.com,235034011,"69, Parmer Path, Thrissur 821622"
E1035,Ekaja Kaur,e1035@university.edu,2006-03-08,8,DS,8497588011,DS2021A,Wridesh Sampath,hamsini45@example.org,913648030,"H.No. 22, Kuruvilla Zila, Danapur-276211"
E4876,Yash Dada,e4876@university.edu,2003-09-23,8,DS,279095734,DS2020A,Omisha Krishnamurthy,zarna87@example.com,5071292667,"46/24, Loke Circle, Pondicherry-346501"
E0550,Wriddhish Kara,e0550@university.edu,2006-02-02,5,DS,4841135443,DS2023C,Charvi Bahri,kamalanagar@example.com,916070121,"H.No. 13, Bhasin, Aligarh-714356"
E1041,Qarin Sheth,e1041@university.edu,2003-06-24,8,DS,95048760,DS2021B,Manan Ram,tanaygoyal@example.net,910721159,"91, Mandal Zila, Kota 066547"
E3265,Wazir Sengupta,e3265@university.edu,2005-12-11,8,DS,125163337,DS2020C,Triya Verma,oscar79@example.net,930484053,"923, Dora Ganj, Jaunpur-285192"
E1622,Chasmum Gole,e1622@university.edu,2003-01-19,6,DS,956298255,DS2023C,Yagnesh Nagar,jkorpal@example.com,911888798,"H.No. 37, Luthra Road, Sirsa 475099"
E3003,Kai Ghose,e3003@university.edu,2000-12-02,8,DS,8207914982,DS2021C,Sudiksha Rattan,vahuja@example.org,291535472,"H.No. 60, Handa Chowk, Jalandhar-010594"
E0630,Arunima Mani,e0630@university.edu,2001-02-10,8,DS,252090697,DS2021C,Abhiram Sharma,quincydhawan@example.com,864023881,"94/12, Arora Ganj, Karnal 206936"
E4189,Girish Modi,e4189@university.edu,2003-05-27,4,DS,917429807,DS2024A,Ishanvi Zachariah,faqid65@example.com,728345096,"57/74, Sandal Chowk, Sirsa 084190"
E4380,Anthony Sant,e4380@university.edu,2003-12-31,7,DS,910367181,DS2022A,Rachita Naik,znori@example.com,3865244613,"H.No. 094, Babu Path, Panchkula 679719"
E4531,Yashawini Sachdev,e4531@university.edu,2005-08-08,7,DS,3090160331,DS2022A,Abhimanyu Desai,xbabu@example.net,5584065782,"83/791, Rana Marg, Hosur-488601"
E4421,Oliver Oak,e4421@university.edu,2006-02-11,8,DS,916253086,DS2021A,Vanya Singhal,gayathri39@example.net,902553041,"70/63, Manne Chowk, Fatehpur-498167"
E4864,Amruta Rajagopal,e4864@university.edu,2003-03-06,6,CSE,3749927,CSE2023C,Vincent Gara,akhalsa@example.com,69219039,"H.No. 809, Nagy Marg, Bhavnagar 397085"
E2032,Tanmayi Handa,e2032@university.edu,2004-01-07,4,CSE,918870137,CSE2024A,Upasna Wali,qsaraf@example.net,918037401,"H.No. 767, Anand Chowk, Ratlam-915341"
E1980,Madhav Ravel,e1980@university.edu,2007-04-04,6,CSE,679896309,CSE2023A,Alka Aurora,gautamsodhi@example.com,911773914,"67/132, Chada, Meerut-646228"
E1837,Aradhana Parekh,e1837@university.edu,2000-10-30,8,CSE,919556081,CSE2020B,Teerth Sengupta,gautami36@example.org,306088631,"90/723, Ramachandran Ganj, Karimnagar-935931"
E0585,Vamakshi Hans,e0585@university.edu,2003-12-08,8,CSE,285715364,CSE2020B,Upasna Trivedi,ubawa@example.net,914276283,"053, Bajwa, Kadapa-200653"
E3768,Jagdish Shenoy,e3768@university.edu,2004-01-23,6,CSE,858334400,CSE2023C,Gagan Banik,hegdesamesh@example.com,913700297,"67/26, Contractor Circle, Kota-800530"
E3131,Vasudha Mukherjee,e3131@university.edu,2004-02-23,4,CSE,578040678,CSE2024A,Rohan Balasubramanian,cchaudry@example.net,645370840,"H.No. 17, Kakar Nagar, Karimnagar-058298"
E1027,Abdul Dhawan,e1027@university.edu,2006-06-25,8,CSE,573645015,CSE2020C,Kabir Buch,pratyushmadan@example.com,916206254,"90/80, Rajan Ganj, Bhiwandi 772700"
E3833,Aishani Sampath,e3833@university.edu,2000-11-06,4,CSE,12877162,CSE2024C,Nirja Sem,fdatta@example.org,910077317,"H.No. 94, Sibal Nagar, Malda 845922"
E4843,Nimrat Palla,e4843@university.edu,2007-02-11,7,CSE,76518678,CSE2022B,Atharv Raj,irya53@example.net,650165736,"00, Shanker, Amaravati-546340"
E2113,Oliver Misra,e2113@university.edu,2003-01-19,8,CSE,747931967,CSE2022C,Prisha Bajwa,eta18@example.org,4558109236,"H.No. 98, Rattan Zila, Orai-756092"
E4630,Vivaan Bakshi,e4630@university.edu,2005-06-02,8,CSE,7782823848,CSE2021B,Upasna Varghese,rushilmangal@example.com,1730517433,"283, Kale Chowk, Bareilly-997749"
E3460,Vrinda Balay,e3460@university.edu,2006-01-18,5,CSE,8180635985,CSE2023A,Aradhana Suri,maniabha@example.net,297337015,"32, Dash Ganj, Thrissur 100483"
E0640,Dayamai Sekhon,e0640@university.edu,2007-09-18,5,CSE,915293908,CSE2023A,Tanmayi Dutta,chandreshsethi@example.org,648032830,"H.No. 46, Dugar, Panipat 488374"
E3863,Chatura Gara,e3863@university.edu,2004-06-16,4,CSE,173945585,CSE2024A,Udant Sahota,idika03@example.org,92481990,"H.No. 99, Pai Street, Dhanbad 958356"
E2794,Girik Ben,e2794@university.edu,2005-10-09,3,CSE,915008171,CSE2024C,Pranit Pau,sachardarika@example.com,1390099991,"63/609, Solanki, Thiruvananthapuram 193598"
E4829,Meghana Krishnan,e4829@university.edu,2005-01-17,8,CSE,9756365746,CSE2021A,Kamala Sahota,raghavansimon@example.org,225049426,"73/67, Nagy Street, Alwar 563213"
E4426,Chaitanya Ranganathan,e4426@university.edu,2005-03-24,6,CSE,974582384,CSE2023B,Prisha Chaudhuri,jbuch@example.com,6432875876,"263, Sinha Circle, Mau 138028"
E0560,Gunbir Borde,e0560@university.edu,1999-11-20,6,CSE,911289667,CSE2023A,Anita Goswami,praneeldash@example.net,6415507760,"45, Mohanty Ganj, Chandrapur-372674"
E0113,Advay Thaman,e0113@university.edu,2005-01-09,7,CSE,351450229,CSE2022B,Jai Bahl,nitesh55@example.org,61391213,"15, Chacko Street, Munger-223136"
E4530,Divya Rastogi,e4530@university.edu,2000-03-08,8,CSE,918578711,CSE2021B,Lopa Pandit,zaitragoel@example.net,343133206,"05, Mutti Chowk, Jaipur 783149"
E0546,Indali Buch,e0546@university.edu,2002-11-19,8,CSE,915494888,CSE2022B,Upadhriti Atwal,contractordarsh@example.com,9944789277,"36, Sarkar Street, Nagpur 227992"
E2689,Amol Mody,e2689@university.edu,2005-01-07,8,CSE,793457725,CSE2020A,Arjun Pandey,rattiyutika@example.net,339195681,"H.No. 66, Sanghvi Ganj, Khora -083964"
E0420,Lohit Dada,e0420@university.edu,2002-04-13,8,CSE,913472412,CSE2022B,Ekapad Deep,isaiahramaswamy@example.com,299258626,"99, Chowdhury Zila, Hindupur-530024"
E4157,Suhani Bedi,e4157@university.edu,2007-03-16,8,CSE,300510814,CSE2020A,Vidhi Thakur,vsarraf@example.org,3374884679,"685, Joshi Zila, Ahmednagar-430298"
E2184,Chakrika Karnik,e2184@university.edu,2007-07-07,8,CSE,89584134,CSE2021B,Abha Rama,chopraeta@example.net,916638343,"94/904, Keer Nagar, Hospet-935537"
E3574,Kritika Ravel,e3574@university.edu,2002-12-07,7,AI,145032422,AI2022A,Kai Badami,soodvinaya@example.net,918701881,"56, Issac Path, Guwahati-889021"
E3843,Hritik Sengupta,e3843@university.edu,2004-07-13,4,AI,6957343080,AI2024A,Anay Sarna,ptaneja@example.net,915094171,"121, Chaudhuri, Parbhani-924166"
E1773,Lakshit Thaman,e1773@university.edu,2004-04-01,8,AI,454634301,AI2021B,Xavier Dar,ntata@example.net,134016520,"H.No. 527, Sandhu Path, Bhimavaram-179180"
E1735,Chaaya Datta,e1735@university.edu,2005-11-16,6,AI,904439210,AI2023A,Anthony Anne,fitansankar@example.net,913594998,"H.No. 89, Om Marg, Rohtak-334670"
E3776,Wriddhish Wagle,e3776@university.edu,2006-09-01,6,AI,919692693,AI2023C,Aarav Gokhale,prabhakarnidra@example.com,8645065412,"903, Mistry Road, Ongole-345931"
E4000,Lakshit Narasimhan,e4000@university.edu,2007-07-24,6,AI,777156321,AI2023C,Ishani Joshi,sthakkar@example.org,913490626,"H.No. 685, Rai Path, Gandhinagar-319301"
E1322,Yashvi Comar,e1322@university.edu,2001-10-09,8,AI,2468190486,AI2022A,Vincent Bassi,imanne@example.org,8615831009,"45/43, Bhalla Circle, Jammu-448337"
E0679,Girik Gera,e0679@university.edu,2007-08-12,7,AI,918038110,AI2022C,Leena Raj,bhatiacharles@example.net,912057468,"02/26, Hayer Nagar, Anantapuram 997309"
E4204,Nicholas Banik,e4204@university.edu,2004-07-21,8,AI,2011799583,AI2021B,Wriddhish Devi,omishakari@example.net,618323439,"H.No. 95, Kalita Ganj, Nashik 224799"
E1204,Rishi Badami,e1204@university.edu,2000-06-21,6,AI,2032019891,AI2023A,Edhitha Mittal,wbasak@example.org,704273960,"77/368, Gala Path, Durgapur 301538"
E2286,Banjeet Lata,e2286@university.edu,2004-04-20,8,AI,646252582,AI2021B,Anjali Choudhary,watikasami@example.net,810328120,"H.No. 87, Sarraf Zila, Bhind-500719"
E0261,Netra Mand,e0261@university.edu,2000-09-24,8,AI,918494002,AI2020A,Jagvi Lata,tristanyogi@example.net,831628641,"768, Kapoor Ganj, Aurangabad 334381"
E0477,Prisha Mallick,e0477@university.edu,2001-01-16,8,AI,596871156,AI2020C,Omkaar Korpal,dyalavi@example.com,915441939,"85, Sama Circle, Jabalpur 063902"
E0770,Anthony Sharma,e0770@university.edu,2006-09-02,8,AI,448254220,AI2021A,Anjali Sodhi,ekarajthakur@example.org,595163917,"H.No. 477, Kunda Road, Darbhanga-121311"
E4398,Agastya Sangha,e4398@university.edu,2001-05-07,6,AI,255048190,AI2023A,Vansha Dash,lgera@example.org,912126160,"780, Deep Nagar, Surendranagar Dudhrej 595046"
E0674,Harini Arya,e0674@university.edu,2006-11-27,8,AI,7431004769,AI2020A,Lavanya Prasad,xitipingle@example.org,435723424,"41/411, Sur Marg, Barasat-065463"
E0025,Jagat Kant,e0025@university.edu,2000-12-22,8,AI,4028564694,AI2020B,Barkha Ravel,warhi66@example.net,915640390,"328, Pillai Path, Khora -452678"
E3083,Jason Sami,e3083@university.edu,2007-04-12,4,AI,451676370,AI2024B,Krishna Khatri,farissankar@example.net,5284687024,"H.No. 50, Singh Nagar, Rajpur Sonarpur-417658"
E3222,Krishna Trivedi,e3222@university.edu,2003-09-19,8,AI,918349557,AI2021C,Kiaan Swamy,sethoeshi@example.com,234442100,"61/47, Rout Zila, Maheshtala 208505"
E2384,Pranit Choudhry,e2384@university.edu,2003-07-02,8,AI,361460137,AI2021A,Darika Lanka,wparmer@example.net,92332628,"77, Bora Street, Malegaon 142640"
E1099,Manya Nanda,e1099@university.edu,2000-06-03,8,AI,938714767,AI2021C,Anmol More,qarinwadhwa@example.net,919527662,"57/313, Mitter Zila, Amroha 810110"
E1225,Yatan Sanghvi,e1225@university.edu,2002-01-10,8,AI,484027523,AI2022B,Aryan Dar,jagdishsolanki@example.com,9475439522,"H.No. 931, More, Howrah 764904"
E0422,Jeevika Deep,e0422@university.edu,2004-07-17,7,AI,8427722023,AI2022B,Isha Dhingra,rnadig@example.com,10237784,"H.No. 85, Muni Nagar, Burhanpur-948551"
E4962,Pratyush Raj,e4962@university.edu,2000-11-15,8,AI,327804308,AI2021B,Nihal Doctor,rpatla@example.net,919242334,"22/743, Vala Circle, Thoothukudi 564460"
E3500,Siya Sundaram,e3500@university.edu,2003-04-03,3,AI,917354486,AI2024B,Oliver Bobal,deepabhakta@example.com,751923893,"79/81, Oommen Circle, Nashik-794276"
E3623,Zehaan Dani,e3623@university.edu,2004-09-14,8,ME,7891668728,ME2020B,Chaman Jhaveri,dyadav@example.net,800350388,"659, Jhaveri Road, Warangal-869014"
E3984,Vasudha Balan,e3984@university.edu,2006-03-14,8,ME,911671036,ME2020C,Sathvik Bhavsar,gabriel10@example.net,915481009,"153, Sengupta Ganj, Siliguri 694075"
E1785,Logan Thaman,e1785@university.edu,2002-09-02,8,ME,2671987723,ME2021B,Benjamin Shah,labanbassi@example.net,7293652601,"H.No. 236, Samra Marg, North Dumdum-488862"
E1758,Chandresh Vaidya,e1758@university.edu,2001-07-21,8,ME,326666890,ME2022C,Saanvi Sahni,labanzachariah@example.net,916395186,"041, Lad Circle, Alwar 236919"
E3885,Yashvi Kar,e3885@university.edu,2004-04-20,6,ME,93343625,ME2023A,Vasudha Kala,gopalfaras@example.org,1083254899,"45/269, Chhabra Road, Mysore 736177"
E4012,Yamini Nazareth,e4012@university.edu,2000-09-11,4,ME,917657107,ME2024A,Sneha Kamdar,yashoda62@example.com,4313546312,"H.No. 109, Ramesh Chowk, North Dumdum-779840"
E1414,Andrew Kala,e1414@university.edu,1999-11-08,8,ME,910626905,ME2021B,Eesha Agrawal,chanchalmukherjee@example.net,918707394,"61, Dhar Circle, Phusro 227027"
E0648,Sara Lalla,e0648@university.edu,2001-02-24,4,ME,4633568198,ME2024C,Ira Bera,reddyhardik@example.org,8982443649,"H.No. 127, Choudhary Ganj, Mathura 922351"
E4218,Vedika Puri,e4218@university.edu,2000-12-31,7,ME,4499231463,ME2022C,Kavya Dutt,nmohanty@example.org,911809000,"H.No. 413, Krishna Path, Gaya-764659"
E1245,Faras Kari,e1245@university.edu,2002-11-14,8,ME,881087695,ME2020B,Fariq Batta,zehaansidhu@example.net,5958077909,"665, Hayer Chowk, Nandyal 049191"
E2166,Gayathri Sharaf,e2166@university.edu,2004-11-09,3,ME,913961211,ME2024C,Daksha Kapur,advika19@example.org,1717913379,"54, Pau Circle, Kurnool-759524"
E0294,Sanya Rout,e0294@university.edu,2001-07-12,8,ME,4783286883,ME2020A,Chandresh Arya,qdar@example.net,911372012,"H.No. 557, Kala Zila, Kochi 319936"
E0472,Elijah Kota,e0472@university.edu,2001-07-02,8,ME,4621867602,ME2021A,George Sehgal,ssrinivasan@example.com,919818594,"63, Bail Path, Gangtok-516631"
E0722,Jeremiah Rege,e0722@university.edu,2005-12-10,8,ME,2630674077,ME2021C,Rachita Dube,jagratiaggarwal@example.net,829179178,"H.No. 77, Mannan Zila, Hapur 079446"
E4430,Nisha Som,e4430@university.edu,1999-11-12,6,ME,700599741,ME2023A,Meera Chaudhary,dakshsolanki@example.org,912210080,"H.No. 789, Iyengar Chowk, Phagwara-257446"
E0634,Yamini Chahal,e0634@university.edu,2000-06-04,8,ME,7091624237,ME2021C,Maya Patil,bhavna45@example.net,916885889,"92/99, Devan Street, Siliguri-756404"
E0020,Liam Sawhney,e0020@university.edu,2001-10-28,7,ME,9646541045,ME2022B,Kai Chauhan,natarajaninaya@example.com,816660016,"10/567, Shan Ganj, Bhilwara-076799"
E3048,Nilima Upadhyay,e3048@university.edu,1999-12-14,8,ME,911814935,ME2021A,Wridesh Badami,jloke@example.org,911228239,"76, Ganguly Street, Suryapet 523334"
E3216,Vihaan Walla,e3216@university.edu,2005-09-05,8,ME,803888027,ME2021C,Faris Lanka,reva37@example.net,918083323,"50/945, Agate Nagar, Hindupur 368803"
E2762,Megha Kapoor,e2762@university.edu,2000-10-03,5,ME,752501674,ME2023C,Xalak Tandon,xreddy@example.net,6421234609,"964, Virk Path, Khandwa 601879"
E1107,Saanvi Radhakrishnan,e1107@university.edu,2002-02-21,6,ME,128654471,ME2023C,Nakul Raman,pooja91@example.org,212201962,"61/39, Srivastava Chowk, Mango-502658"
E1258,Aarnav Padmanabhan,e1258@university.edu,2000-04-13,8,ME,918837150,ME2022B,Brijesh Hegde,singhvaishnavi@example.net,425967748,"59/87, Bhagat, Chandrapur 441206"
E0426,Janaki Khanna,e0426@university.edu,1999-12-07,8,ME,910548863,ME2022A,Amruta Ramachandran,hredhaanprashad@example.org,910659559,"10, Bajaj Zila, Kollam 624168"
E4969,Xiti Barad,e4969@university.edu,2001-10-01,7,ME,669394448,ME2022C,Vamakshi Goel,shankerjoshua@example.net,911672613,"H.No. 110, Kale, Chandrapur-609134"
E3629,Gaurangi Swaminathan,e3629@university.edu,2006-11-20,4,EEE,190510095,EEE2024B,Ria Rana,singhalxalak@example.net,9123574723,"H.No. 72, Datta Path, Kishanganj 843719"
E4035,Yatin Ranganathan,e4035@university.edu,2000-03-05,8,EEE,911532968,EEE2021B,Charita Srinivas,oprashad@example.com,913968422,"16/341, Biswas Circle, Gangtok 462538"
E1827,Keya Parmar,e1827@university.edu,2007-01-18,3,EEE,912157213,EEE2024C,Yashodhara Bala,ssampath@example.org,764044835,"H.No. 131, Ram Road, Karawal Nagar 723727"
E1809,Rushil Shenoy,e1809@university.edu,2002-09-15,3,EEE,485434232,EEE2024A,Qabil Mittal,narayananhemangini@example.com,278870732,"37, Bedi Zila, Kakinada-485814"
E3886,Mitesh Aggarwal,e3886@university.edu,2004-04-21,8,EEE,753675644,EEE2020B,Tarak Banerjee,lopavohra@example.net,909976631,"53/712, Bhagat Marg, Jehanabad-469427"
E4100,Pratyush Parmar,e4100@university.edu,2002-04-08,3,EEE,914728566,EEE2024C,Ekaraj Pradhan,patiludyati@example.net,913108377,"02/90, Tiwari Ganj, Tinsukia-072673"
E1384,Kamala Mannan,e1384@university.edu,2006-05-21,8,EEE,4831264718,EEE2020A,Dayamai Chaudry,yutika04@example.net,916595816,"H.No. 292, Balay Zila, Bhavnagar-400219"
E0614,Tanmayi Sahni,e0614@university.edu,2001-09-06,8,EEE,6466421566,EEE2021A,Pooja Bal,chanakya14@example.org,6890466928,"51/325, Ganesan Chowk, Bijapur-305145"
E4321,Yagnesh Singh,e4321@university.edu,2003-12-06,8,EEE,127823834,EEE2020A,Amruta Madan,garima51@example.com,7199964141,"H.No. 42, Das Street, Sikar-450495"
E1200,Ridhi Mall,e1200@university.edu,1999-11-14,4,EEE,606459347,EEE2024A,Gaurangi Ghose,gtank@example.org,914409393,"H.No. 731, Chowdhury Street, Phagwara-940820"
E2207,Laksh Dani,e2207@university.edu,2001-08-09,7,EEE,910060651,EEE2022C,Lucky Lanka,zaid05@example.org,227160526,"H.No. 56, Wable Chowk, Siliguri 925117"
E0295,Utkarsh Hari,e0295@university.edu,2003-12-06,6,EEE,910767899,EEE2023C,Lakshit Memon,ayaan58@example.org,961083312,"341, Batta Street, Bareilly-436548"
E0469,Ekantika Goel,e0469@university.edu,2002-10-23,8,EEE,912372113,EEE2022B,Imaran Randhawa,lopa67@example.com,2947067001,"H.No. 016, Misra, Karimnagar-349052"
E0709,Deepa Munshi,e0709@university.edu,2007-01-14,8,EEE,910800337,EEE2020A,Chaitaly Vasa,warhi33@example.com,917253491,"48, Chaudry, Kadapa 022147"
E4534,Reyansh Modi,e4534@university.edu,2007-04-26,8,EEE,915708262,EEE2021C,Nachiket Kapadia,odikadugar@example.net,1646510285,"468, Banik, Bhiwandi-215243"
E0613,Chaman Malhotra,e0613@university.edu,2002-04-12,8,EEE,913058899,EEE2021C,Nidhi Sandhu,gabriel29@example.org,913340042,"H.No. 811, Gade Circle, Nandyal-850143"
E0023,Vamakshi Walia,e0023@university.edu,2007-07-11,8,EEE,911815184,EEE2020C,Chatura Kala,tristankuruvilla@example.com,7530727765,"91, Kapur Road, Amravati 872612"
E2889,Oni Savant,e2889@university.edu,2004-06-26,3,EEE,5195690760,EEE2024C,Yatan Dua,omyachakrabarti@example.org,911652052,"24/10, Maharaj Ganj, Rampur-627396"
E3191,Ekaraj Bains,e3191@university.edu,2006-03-23,5,EEE,917972140,EEE2023A,Shivansh Singhal,warriorchandani@example.org,912285783,"286, Seth, Hazaribagh 663471"
E2638,Siddharth Anand,e2638@university.edu,2001-12-27,5,EEE,919366398,EEE2023A,Adya Mohan,karayutika@example.org,8612545649,"84/14, Seshadri Ganj, Patna-471683"
E1085,Kiaan Bera,e1085@university.edu,2002-12-25,3,EEE,915783605,EEE2024A,Samuel Kumer,ubikathaman@example.net,911746157,"H.No. 348, Dhawan Path, Malegaon 290786"
E1212,Zashil Babu,e1212@university.edu,2000-03-03,8,EEE,433595000,EEE2022A,Unnati Chaudry,ksundaram@example.org,2296856611,"04/780, Gopal Path, Nashik 103420"
E0444,Yashodhara Kaur,e0444@university.edu,2005-06-22,7,EEE,915644620,EEE2022B,Faqid Dyal,dugalqushi@example.com,1362362987,"552, Toor Chowk, Sambalpur-380135"
E4976,Wazir Saran,e4976@university.edu,2003-03-31,8,EEE,9702693479,EEE2022C,Krisha Sarma,amairaraman@example.org,267920961,"488, Chokshi Zila, Sirsa 625331"
E0359,Advaith Handa,e0359@university.edu,2006-02-24,4,ECE,910259777,ECE2024C,Dipta Balakrishnan,balvan69@example.net,5080026942,"H.No. 54, Palla Circle, Chinsurah-623765"
E4693,Ishanvi Bhatia,e4693@university.edu,2001-04-05,8,ECE,2477369314,ECE2022A,Laksh Merchant,wallaadvika@example.com,917642430,"H.No. 07, Sagar, Bahraich 010508"
E0607,Vidhi Khosla,e0607@university.edu,2006-08-09,8,ECE,718881361,ECE2020B,Chatresh Aurora,maanavagate@example.org,256394974,"H.No. 245, Patla Circle, Bilaspur 985833"
E2303,Hemal Ramakrishnan,e2303@university.edu,2005-11-26,8,ECE,122411946,ECE2020A,Nidhi Bhatti,ekantika35@example.net,2740703938,"63/966, Dubey Marg, Unnao 599424"
E0846,Harshil Parekh,e0846@university.edu,2002-11-13,8,ECE,918476035,ECE2020A,Varenya Khalsa,shankerkaran@example.org,665107310,"92, Pillay Nagar, Rourkela 130997"
E4874,Kalpit Kohli,e4874@university.edu,2005-11-21,8,ECE,914247944,ECE2021A,Priya Randhawa,hemanginidash@example.com,919961168,"301, Mane Zila, Dibrugarh-896417"
E2068,Kamya De,e2068@university.edu,2001-01-03,6,ECE,685169290,ECE2023A,Balveer De,saumya97@example.org,198504630,"59/550, Sethi Circle, Guntur 020016"
E2662,Simon Vohra,e2662@university.edu,2003-10-29,8,ECE,547494303,ECE2020B,Ansh Master,vivaanghose@example.net,2793640178,"61/76, Swamy Ganj, Lucknow 700162"
E2504,Luke Kaul,e2504@university.edu,2001-09-25,8,ECE,764895442,ECE2020C,Yachana Ratti,gmital@example.net,1819181378,"H.No. 885, Menon Path, Thiruvananthapuram-855680"
E4233,Sanaya Kari,e4233@university.edu,2004-02-13,8,ECE,9249112118,ECE2021B,Nidra Solanki,kothariudarsh@example.net,138387417,"H.No. 32, Mohan Nagar, Bidar-275062"
E2186,Pranit Khurana,e2186@university.edu,2004-12-18,7,ECE,2090267719,ECE2022B,Christopher Yogi,shaurya50@example.com,699696488,"62/43, Dave Circle, Hosur-424507"
E3860,Manthan Natt,e3860@university.edu,2002-05-14,8,ECE,5568741904,ECE2020B,Gaurika Dhillon,megha95@example.org,910853618,"506, Chandra Street, Shimla-956889"
E1781,Gavin Wadhwa,e1781@university.edu,2003-02-15,6,ECE,5271177595,ECE2023A,Lila Trivedi,qkamdar@example.com,917989309,"H.No. 51, Viswanathan Marg, Dharmavaram-916215"
E0999,Chanchal Dyal,e0999@university.edu,2005-11-02,4,ECE,807505312,ECE2024B,Sathvik Behl,shankerlaksh@example.com,579050077,"91/134, Srinivasan Road, Kishanganj-297026"
E0028,Bhavika Choudhry,e0028@university.edu,2006-02-08,8,ECE,1917642326,ECE2021A,Chanchal Chaudhuri,msundaram@example.org,2678138548,"H.No. 962, Saran Street, Imphal 903491"
E1724,Priya Wagle,e1724@university.edu,2007-08-23,6,ECE,503948969,ECE2023C,Lohit Gole,bhavinipau@example.org,1914764563,"49, Bhatnagar Nagar, Bidar 260812"
E4658,Fariq Bajaj,e4658@university.edu,2002-11-24,6,ECE,470222214,ECE2023A,Rohan Mittal,ibava@example.org,7260531753,"96/032, Mittal Chowk, Katihar 545159"
E3302,Indali Gera,e3302@university.edu,2001-08-21,3,ECE,104981195,ECE2024A,Umang Mistry,urmipal@example.com,917579283,"H.No. 598, Narayanan Circle, Gulbarga-410673"
E1404,Eta Nadkarni,e1404@university.edu,2005-12-29,8,ECE,965820250,ECE2021B,Vihaan Amble,khalsatriveni@example.org,4594948959,"61/794, Balan Road, Nandyal-449413"
E3014,Hemangini Kannan,e3014@university.edu,2004-11-24,3,ECE,914638692,ECE2024C,Bhavna Lata,travi@example.net,81889142,"798, Kalla Marg, Guna-027448"
E2854,Sanya Subramanian,e2854@university.edu,2004-09-05,6,ECE,7764058159,ECE2023C,Alka Contractor,jvarughese@example.com,21833468,"H.No. 17, Baria, Karaikudi-820098"
E0592,Diya Mandal,e0592@university.edu,2004-12-03,5,ECE,920375930,ECE2023A,Falak Sabharwal,hemaniwalla@example.com,7250125077,"684, Pandya Marg, Dibrugarh-177928"
E1905,Utkarsh Wali,e1905@university.edu,2002-06-29,8,ECE,2721593008,ECE2020A,Gavin Saran,sibalsaanvi@example.net,914071388,"85, Rana Nagar, Alwar-266522"
E0397,Wishi Dube,e0397@university.edu,2007-03-28,8,ECE,912172269,ECE2020B,Hardik Mandal,mayazachariah@example.org,914392636,"03/753, Som Street, Kamarhati-090425"
E0632,Yauvani Hari,e0632@university.edu,2005-05-13,8,IT,9210378446,IT2021A,Raagini Bhavsar,uppalsara@example.org,6530522514,"96, Keer Marg, Shahjahanpur 598901"
E1697,Zashil Mallick,e1697@university.edu,2003-11-27,5,IT,1442353438,IT2023C,Ishwar Patla,dkala@example.net,616211579,"H.No. 84, Sood, Raebareli-496810"
E0415,Harish Singhal,e0415@university.edu,2001-06-09,8,IT,454644209,IT2021A,Zarna Mangat,widisha47@example.net,554850552,"87/78, Banik Road, Srikakulam 913077"
E4896,Jagdish Nath,e4896@university.edu,2006-03-27,7,IT,8787151667,IT2022C,Qarin Mittal,charniharika@example.net,667451921,"797, Swaminathan Chowk, Bathinda 829538"
E2101,Ira Sridhar,e2101@university.edu,2004-05-12,8,IT,300793608,IT2021B,Triya Sunder,ubalan@example.org,6249806395,"97/07, Warrior Road, Chandigarh-236511"
E1269,Sathvik Dani,e1269@university.edu,2003-02-10,8,IT,1339178366,IT2021B,Yashodhara Gole,chargavin@example.com,932530601,"H.No. 203, Chaudry Circle, Malegaon 001617"
E3971,Nihal Chaudhry,e3971@university.edu,2006-03-24,8,IT,918691728,IT2022C,Upasna Thaker,nicholas54@example.com,8474780960,"H.No. 80, Mani Ganj, Rajpur Sonarpur 872876"
E2579,Nirja Dara,e2579@university.edu,2003-09-03,8,IT,4606348978,IT2022A,Anita Murthy,jchakraborty@example.org,914215303,"86/547, Oak Circle, Gandhinagar 114060"
E4725,Bahadurjit Sami,e4725@university.edu,2007-02-06,3,IT,288402830,IT2024A,Wahab Nayar,iralalla@example.net,917375116,"677, Ram Street, Raichur-272005"
E2357,Madhav Gaba,e2357@university.edu,1999-10-13,8,IT,6863354200,IT2021B,Oni Chhabra,eiravati07@example.net,593607200,"094, Ahuja Road, Tiruchirappalli 198654"
E1860,Dhriti Zacharia,e1860@university.edu,2000-02-20,4,IT,277383407,IT2024C,Zinal Char,boraamrita@example.net,773992805,"94, Chad Zila, Mumbai 922272"
E1967,Benjamin Loke,e1967@university.edu,2000-08-09,8,IT,2631677194,IT2020B,Janani Bhatti,vasanashetty@example.org,7059704660,"61/51, Tara Street, Mathura 915875"
E1562,Oni Lata,e1562@university.edu,2007-07-31,8,IT,6616932411,IT2022A,Ladli Basak,gbalasubramanian@example.org,3381162113,"H.No. 92, Patel, Sagar 326756"
E3263,Vansha Kibe,e3263@university.edu,1999-11-14,7,IT,910766474,IT2022C,Niharika Nayar,ocheema@example.net,1803853735,"H.No. 414, Sachdeva Nagar, Medininagar-065889"
E2349,Champak Dugar,e2349@university.edu,2000-03-27,3,IT,917724831,IT2024B,Maya Sengupta,tbava@example.com,3753788492,"H.No. 69, Munshi Chowk, Madhyamgram 702448"
E2577,Ekani Kadakia,e2577@university.edu,2001-07-10,5,IT,917754571,IT2023C,Ladli Dhar,janifarhan@example.com,919143266,"33/419, Sarna Circle, Bhind 287880"
E4485,Lila Issac,e4485@university.edu,2004-12-18,7,IT,912856981,IT2022C,Ryan Bhattacharyya,chaudrydevansh@example.org,157302850,"03/51, Nadkarni Street, Raiganj-022669"
E4311,Charvi Mammen,e4311@university.edu,2000-09-30,3,IT,3336430490,IT2024C,Chandani Andra,aachalrastogi@example.com,4151625476,"75/908, Parmar Road, Arrah 093985"
E0098,Vinaya Sandhu,e0098@university.edu,2006-06-19,3,IT,188533085,IT2024B,Dipta Cheema,palleiravati@example.net,919131686,"696, Kashyap Circle, Madurai-658125"
E0034,Noah Balay,e0034@university.edu,2004-11-09,3,IT,910985489,IT2024A,Ira Khurana,dugarqabil@example.org,805740805,"388, Sur, Bhatpara-434908"
E1541,Avi Palan,e1541@university.edu,2007-06-20,4,IT,4766554059,IT2024B,Eshana Rai,vanyachana@example.net,167388136,"864, Dar Marg, Aurangabad-396783"
E1791,Yashica Choudhary,e1791@university.edu,2000-09-28,3,IT,911462983,IT2024A,Elijah Padmanabhan,qsetty@example.com,574840357,"30/179, Hegde Path, Raipur 345762"
E3549,Elijah Bhardwaj,e3549@university.edu,2001-02-11,8,IT,946079239,IT2021A,Jonathan Kala,triptikale@example.com,6046954752,"75/666, Kari Chowk, Amaravati 448590"
E1436,Anirudh Varughese,e1436@university.edu,2001-01-25,3,IT,918118894,IT2024B,Indrajit Batra,rattinaveen@example.org,3284891252,"476, Raju Ganj, Unnao-472958"
E4261,Urishilla Badal,e4261@university.edu,2003-10-24,6,CE,1038162258,CE2023B,Ira Sabharwal,farhanborra@example.com,745090558,"65/107, Chacko Zila, Rampur-688940"
E2435,Neha Ramakrishnan,e2435@university.edu,2005-10-30,8,CE,1618906154,CE2022B,Turvi Dhawan,veda62@example.net,915176327,"153, Shanker Chowk, Bikaner 180205"
E4225,Abha Bal,e4225@university.edu,2000-12-24,4,CE,917900036,CE2024C,Wridesh Cheema,ayushravi@example.org,692182044,"H.No. 134, Chopra Circle, Berhampore 277928"
E2824,Balveer Setty,e2824@university.edu,2007-08-20,4,CE,442831564,CE2024A,Niharika Bumb,bvarty@example.com,9971557,"H.No. 04, Rastogi Circle, Malda-729525"
E1752,Gaurangi Deol,e1752@university.edu,2002-07-15,8,CE,275015741,CE2020B,Shivani Shukla,jeettata@example.com,730671859,"054, Buch Path, Katihar 584581"
E0777,Noah D’Alia,e0777@university.edu,2001-10-28,6,CE,831635581,CE2023B,Azaan Tiwari,gautami61@example.org,71666882,"44/82, Setty Road, Miryalaguda-309929"
E2607,Ridhi Gaba,e2607@university.edu,2002-11-17,3,CE,24166771,CE2024A,Harsh Bhalla,waglesiddharth@example.net,8364333300,"77/24, Trivedi Nagar, Pune 292258"
E1491,Hiral Jaggi,e1491@university.edu,2005-10-13,8,CE,772385270,CE2020B,Sachi Arya,morarsuhani@example.com,618690189,"76/200, Rout Path, Mumbai-717485"
E4582,Samesh Chana,e4582@university.edu,2002-12-17,5,CE,919344098,CE2023A,Fariq Chaudhry,nidragaba@example.org,911104459,"54/273, Shah, Raichur 819074"
E1121,Luke Modi,e1121@university.edu,2002-09-25,3,CE,9608850039,CE2024B,Indira Kuruvilla,bhaktabenjamin@example.org,919012318,"H.No. 718, Balasubramanian Zila, Rohtak-112923"
E4605,Christopher Palla,e4605@university.edu,2002-07-24,8,CE,991214871,CE2021B,Vasana Saxena,wyatt16@example.net,911611542,"H.No. 32, Mody Marg, Mira-Bhayandar-310392"
E0555,Urishilla Maharaj,e0555@university.edu,2002-10-13,7,CE,917265056,CE2022A,Ucchal Chandra,swaminathansaanvi@example.org,910855040,"89/43, Pall Street, Mahbubnagar-460176"
E3341,Ekani Babu,e3341@university.edu,2000-03-31,8,CE,913691879,CE2021C,Ekta Murthy,lmahajan@example.net,433320511,"37/725, Hayre Ganj, Mathura-017986"
E1950,Brinda Nath,e1950@university.edu,2000-05-17,3,CE,891513670,CE2024A,Gavin Gala,rwason@example.org,911193516,"551, Narula Street, Guntakal 948380"
E3547,Ansh Sangha,e3547@university.edu,2001-05-25,8,CE,917270228,CE2021A,Ekansh Varghese,modiodika@example.net,910976417,"17/908, Mann Zila, Mirzapur 039758"
E1270,Ishaan Chad,e1270@university.edu,2002-04-19,5,CE,868230648,CE2023B,Mekhala Suresh,umang72@example.net,294555199,"24/007, Pandit, Dehri 886869"
E1749,Manan Ganguly,e1749@university.edu,2001-06-01,4,CE,910591249,CE2024B,Urmi Rajan,panttanvi@example.com,916588469,"93, Andra Zila, Karawal Nagar 649962"
E3207,Imaran Patla,e3207@university.edu,2007-05-27,4,CE,4147827985,CE2024C,Vincent Pau,fbhatia@example.net,396310355,"H.No. 50, Nadig Ganj, Bhilwara-194344"
E4117,Turvi Thakkar,e4117@university.edu,2004-01-09,3,CE,913181959,CE2024A,Daniel Saraf,erama@example.org,916063421,"H.No. 87, Nayar, Bangalore 466595"
E1493,Nathaniel Bhatt,e1493@university.edu,2004-09-14,8,CE,1749980,CE2021A,Nathaniel Prabhakar,kkapoor@example.com,7379005122,"31/91, Sastry Street, Ambala 089312"
E2405,Barkha Karnik,e2405@university.edu,2001-06-20,6,CE,4951315074,CE2023B,Anirudh Manne,gunbir14@example.com,380265652,"H.No. 277, Konda Road, Sonipat 304790"
E1906,Dominic Devi,e1906@university.edu,2001-09-25,5,CE,917638828,CE2023B,Ekbal Sarraf,edar@example.net,481972957,"97, Devi Ganj, Kamarhati-177009"
E0008,Rachita Mandal,e0008@university.edu,2004-10-19,8,CE,916319190,CE2022A,Kashish Shroff,sanyaseshadri@example.com,7647822834,"H.No. 255, Andra Circle, Malda 805156"
